[{"OBJECT_NAME":"STARLINK-1733","OBJECT_ID":"2020-070AJ","EPOCH":"2026-03-10T00:00:02.999808","MEAN_MOTION":15.74070769,"ECCENTRICITY":0.00019603,"INCLINATION":53.0418,"RA_OF_ASC_NODE":105.8439,"ARG_OF_PERICENTER":358.1851,"MEAN_ANOMALY":270.2405,"EPHEMERIS_TYPE":0,"CLASSIFICATION_TYPE":"U","NORAD_CAT_ID":46564,"ELEMENT_SET_NO":999,"REV_AT_EPOCH":596,"BSTAR":0.0010340128,"MEAN_MOTION_DOT":0.0015282,"MEAN_MOTION_DDOT":0},{"OBJECT_NAME":"STARLINK-36756","OBJECT_ID":"2026-032W","EPOCH":"2026-03-09T21:53:16.589184","MEAN_MOTION":15.7527509,"ECCENTRICITY":9.159e-5,"INCLINATION":97.2843,"RA_OF_ASC_NODE":255.4874,"ARG_OF_PERICENTER":102.7886,"MEAN_ANOMALY":257.3482,"EPHEMERIS_TYPE":0,"CLASSIFICATION_TYPE":"U","NORAD_CAT_ID":67817,"ELEMENT_SET_NO":999,"REV_AT_EPOCH":481,"BSTAR":0.0015459296,"MEAN_MOTION_DOT":0.00237869,"MEAN_MOTION_DDOT":0}]
